{
    "links": {
        "self": "http://www.neowsapp.com/rest/v1/neo/3295791?api_key=iIulBulltgU6a56xZRHN4H3l9WmuAYTsLGpBGhQ2"
    },
    "id": "3295791",
    "neo_reference_id": "3295791",
    "name": "(2005 UA1)",
    "designation": "2005 UA1",
    "nasa_jpl_url": "http://ssd.jpl.nasa.gov/sbdb.cgi?sstr=3295791",
    "absolute_magnitude_h": 26.2,
    "estimated_diameter": {
        "kilometers": {
            "estimated_diameter_min": 0.0152951935,
            "estimated_diameter_max": 0.0342010925
        },
        "meters": {
            "estimated_diameter_min": 15.2951935344,
            "estimated_diameter_max": 34.201092472
        },
        "miles": {
            "estimated_diameter_min": 0.0095039897,
            "estimated_diameter_max": 0.021251567
        },
        "feet": {
            "estimated_diameter_min": 50.1810827555,
            "estimated_diameter_max": 112.2083122258
        }
    },
    "is_potentially_hazardous_asteroid": false,
    "close_approach_data": [
        {
            "close_approach_date": "2005-10-20",
            "close_approach_date_full": "2005-Oct-20 23:04",
            "epoch_date_close_approach": 1129849440000,
            "relative_velocity": {
                "kilometers_per_second": "14.9045627786",
                "kilometers_per_hour": "53656.4260030352",
                "miles_per_hour": "33340.0164794971"
            },
            "miss_distance": {
                "astronomical": "0.0072607189",
                "lunar": "2.8244196521",
                "kilometers": "1086188.082108743",
                "miles": "674925.9774889334"
            },
            "orbiting_body": "Earth"
        },
        {
            "close_approach_date": "2005-10-21",
            "close_approach_date_full": "2005-Oct-21 04:28",
            "epoch_date_close_approach": 1129868880000,
            "relative_velocity": {
                "kilometers_per_second": "15.3781034218",
                "kilometers_per_hour": "55361.172318629",
                "miles_per_hour": "34399.279544317"
            },
            "miss_distance": {
                "astronomical": "0.0079510962",
                "lunar": "3.0929764218",
                "kilometers": "1189467.055685094",
                "miles": "739100.5558545372"
            },
            "orbiting_body": "Moon"
        }
    ],
    "orbital_data": {
        "orbit_id": "10",
        "orbit_determination_date": "2017-04-06 09:10:10",
        "first_observation_date": "2005-10-23",
        "last_observation_date": "2005-11-11",
        "data_arc_in_days": 19,
        "observations_used": 33,
        "orbit_uncertainty": "8",
        "minimum_orbit_intersection": ".00138675",
        "jupiter_tisserand_invariant": "3.459",
        "epoch_osculation": "2453673.5",
        "eccentricity": ".6156043234531803",
        "semi_major_axis": "2.121624066881439",
        "inclination": ".433224887438923",
        "ascending_node_longitude": "257.2464236455587",
        "orbital_period": "1128.758611649144",
        "perihelion_distance": ".8155431185669059",
        "perihelion_argument": "71.60261457362606",
        "aphelion_distance": "3.427705015195972",
        "perihelion_time": "2453624.888233419942",
        "mean_anomaly": "15.50396673674331",
        "mean_motion": ".3189344438081684",
        "equinox": "J2000",
        "orbit_class": {
            "orbit_class_type": "APO",
            "orbit_class_description": "Near-Earth asteroid orbits which cross the Earth’s orbit similar to that of 1862 Apollo",
            "orbit_class_range": "a (semi-major axis) > 1.0 AU; q (perihelion) < 1.017 AU"
        }
    },
    "is_sentry_object": false
}